{
    "CCSDS_OMM_VERS": "3.0",
    "COMMENT": "GENERATED VIA SPACE-TRACK.ORG API",
    "CREATION_DATE": "2025-11-23T14:26:32",
    "ORIGINATOR": "18 SPCS",
    "OBJECT_NAME": "NAVSTAR 79 (USA 304)",
    "OBJECT_ID": "2020-041A",
    "CENTER_NAME": "EARTH",
    "REF_FRAME": "TEME",
    "TIME_SYSTEM": "UTC",
    "MEAN_ELEMENT_THEORY": "SGP4",
    "EPOCH": "2025-11-23T07:28:01.826400",
    "MEAN_MOTION": "2.00562442",
    "ECCENTRICITY": "0.00600910",
    "INCLINATION": "56.5332",
    "RA_OF_ASC_NODE": "36.9431",
    "ARG_OF_PERICENTER": "202.5994",
    "MEAN_ANOMALY": "153.6341",
    "EPHEMERIS_TYPE": "0",
    "CLASSIFICATION_TYPE": "U",
    "NORAD_CAT_ID": "45854",
    "ELEMENT_SET_NO": "999",
    "REV_AT_EPOCH": "3990",
    "BSTAR": "0.00000000000000",
    "MEAN_MOTION_DOT": "-0.00000065",
    "MEAN_MOTION_DDOT": "0.0000000000000",
    "SEMIMAJOR_AXIS": "26560.450",
    "PERIOD": "717.981",
    "APOAPSIS": "20341.920",
    "PERIAPSIS": "20022.711",
    "OBJECT_TYPE": "PAYLOAD",
    "RCS_SIZE": "LARGE",
    "COUNTRY_CODE": "US",
    "LAUNCH_DATE": "2020-06-30",
    "SITE": "AFETR",
    "DECAY_DATE": null,
    "FILE": "4895691",
    "GP_ID": "303304753",
    "TLE_LINE0": "0 NAVSTAR 79 (USA 304)",
    "TLE_LINE1": "1 45854U 20041A   25327.31113225 -.00000065  00000-0  00000+0 0  9991",
    "TLE_LINE2": "2 45854  56.5332  36.9431 0060091 202.5994 153.6341  2.00562442 39904"
}